STARLINK-36852
1 67933U 26037B   26092.18471207  .00102120  00000+0  17337-2 0  9993
2 67933  43.0007  58.9570 0002941 165.7675 194.3268 15.50417506  6925
